CCSDS_OMM_VERS = 2.0
CREATION_DATE  = 
ORIGINATOR     = 

OBJECT_NAME    = STARLINK-36336
OBJECT_ID      = 2026-035Y
CENTER_NAME    = EARTH
REF_FRAME      = TEME
TIME_SYSTEM    = UTC
MEAN_ELEMENT_THEORY = SGP/SGP4

EPOCH          = 2026-02-28T20:00:01.999008
MEAN_MOTION    = 16.07702778
ECCENTRICITY   = .000088
INCLINATION    = 97.2784
RA_OF_ASC_NODE = 351.4547
ARG_OF_PERICENTER = 104.4913
MEAN_ANOMALY   = 15.6322

EPHEMERIS_TYPE = 0
CLASSIFICATION_TYPE = U
NORAD_CAT_ID   = 67901
ELEMENT_SET_NO = 999
REV_AT_EPOCH   = 238
BSTAR          = -.10627E-2
MEAN_MOTION_DOT = -.849918E-2
MEAN_MOTION_DDOT = .26585E-3

CCSDS_OMM_VERS = 2.0
CREATION_DATE  = 
ORIGINATOR     = 

OBJECT_NAME    = STARLINK-36876
OBJECT_ID      = 2026-035Z
CENTER_NAME    = EARTH
REF_FRAME      = TEME
TIME_SYSTEM    = UTC
MEAN_ELEMENT_THEORY = SGP/SGP4

EPOCH          = 2026-02-28T20:00:01.999008
MEAN_MOTION    = 16.07420824
ECCENTRICITY   = .0000981
INCLINATION    = 97.2787
RA_OF_ASC_NODE = 351.4529
ARG_OF_PERICENTER = 96.9724
MEAN_ANOMALY   = 18.0310

EPHEMERIS_TYPE = 0
CLASSIFICATION_TYPE = U
NORAD_CAT_ID   = 67902
ELEMENT_SET_NO = 999
REV_AT_EPOCH   = 233
BSTAR          = -.10925E-2
MEAN_MOTION_DOT = -.858412E-2
MEAN_MOTION_DDOT = .26983E-3

CCSDS_OMM_VERS = 2.0
CREATION_DATE  = 
ORIGINATOR     = 

OBJECT_NAME    = STARLINK-36257
OBJECT_ID      = 2026-035AA
CENTER_NAME    = EARTH
REF_FRAME      = TEME
TIME_SYSTEM    = UTC
MEAN_ELEMENT_THEORY = SGP/SGP4

EPOCH          = 2026-02-28T20:00:01.999008
MEAN_MOTION    = 16.07534595
ECCENTRICITY   = .0000923
INCLINATION    = 97.2784
RA_OF_ASC_NODE = 351.4531
ARG_OF_PERICENTER = 92.8353
MEAN_ANOMALY   = 24.3456

EPHEMERIS_TYPE = 0
CLASSIFICATION_TYPE = U
NORAD_CAT_ID   = 67903
ELEMENT_SET_NO = 999
REV_AT_EPOCH   = 238
BSTAR          = -.10778E-2
MEAN_MOTION_DOT = -.85293E-2
MEAN_MOTION_DDOT = .26703E-3

CCSDS_OMM_VERS = 2.0
CREATION_DATE  = 
ORIGINATOR     = 

OBJECT_NAME    = STARLINK-36814
OBJECT_ID      = 2026-036A
CENTER_NAME    = EARTH
REF_FRAME      = TEME
TIME_SYSTEM    = UTC
MEAN_ELEMENT_THEORY = SGP/SGP4

EPOCH          = 2026-02-28T20:00:01.999008
MEAN_MOTION    = 15.91457498
ECCENTRICITY   = .0001723
INCLINATION    = 42.9961
RA_OF_ASC_NODE = 304.2114
ARG_OF_PERICENTER = 271.6274
MEAN_ANOMALY   = 172.7820

EPHEMERIS_TYPE = 0
CLASSIFICATION_TYPE = U
NORAD_CAT_ID   = 67904
ELEMENT_SET_NO = 999
REV_AT_EPOCH   = 222
BSTAR          = -.49975E-2
MEAN_MOTION_DOT = -.1663928E-1
MEAN_MOTION_DDOT = .7639E-3

CCSDS_OMM_VERS = 2.0
CREATION_DATE  = 
ORIGINATOR     = 

OBJECT_NAME    = STARLINK-36729
OBJECT_ID      = 2026-036B
CENTER_NAME    = EARTH
REF_FRAME      = TEME
TIME_SYSTEM    = UTC
MEAN_ELEMENT_THEORY = SGP/SGP4

EPOCH          = 2026-02-28T20:00:01.999008
MEAN_MOTION    = 15.91607987
ECCENTRICITY   = .0001749
INCLINATION    = 42.9959
RA_OF_ASC_NODE = 304.2054
ARG_OF_PERICENTER = 277.0665
MEAN_ANOMALY   = 169.5296

EPHEMERIS_TYPE = 0
CLASSIFICATION_TYPE = U
NORAD_CAT_ID   = 67905
ELEMENT_SET_NO = 999
REV_AT_EPOCH   = 222
BSTAR          = -.48437E-2
MEAN_MOTION_DOT = -.1625798E-1
MEAN_MOTION_DDOT = .73303E-3

CCSDS_OMM_VERS = 2.0
CREATION_DATE  = 
ORIGINATOR     = 

OBJECT_NAME    = STARLINK-36763
OBJECT_ID      = 2026-036C
CENTER_NAME    = EARTH
REF_FRAME      = TEME
TIME_SYSTEM    = UTC
MEAN_ELEMENT_THEORY = SGP/SGP4

EPOCH          = 2026-02-28T20:00:01.999008
MEAN_MOTION    = 15.91777637
ECCENTRICITY   = .0001657
INCLINATION    = 42.9959
RA_OF_ASC_NODE = 304.1996
ARG_OF_PERICENTER = 279.4275
MEAN_ANOMALY   = 169.4831

EPHEMERIS_TYPE = 0
CLASSIFICATION_TYPE = U
NORAD_CAT_ID   = 67906
ELEMENT_SET_NO = 999
REV_AT_EPOCH   = 222
BSTAR          = -.47901E-2
MEAN_MOTION_DOT = -.1622054E-1
MEAN_MOTION_DDOT = .73112E-3

CCSDS_OMM_VERS = 2.0
CREATION_DATE  = 
ORIGINATOR     = 

OBJECT_NAME    = STARLINK-36742
OBJECT_ID      = 2026-036D
CENTER_NAME    = EARTH
REF_FRAME      = TEME
TIME_SYSTEM    = UTC
MEAN_ELEMENT_THEORY = SGP/SGP4

EPOCH          = 2026-02-28T20:00:01.999008
MEAN_MOTION    = 15.91941595
ECCENTRICITY   = .0001686
INCLINATION    = 42.9960
RA_OF_ASC_NODE = 304.1943
ARG_OF_PERICENTER = 271.6557
MEAN_ANOMALY   = 179.3873

EPHEMERIS_TYPE = 0
CLASSIFICATION_TYPE = U
NORAD_CAT_ID   = 67907
ELEMENT_SET_NO = 999
REV_AT_EPOCH   = 222
BSTAR          = -.47127E-2
MEAN_MOTION_DOT = -.1609654E-1
MEAN_MOTION_DDOT = .72201E-3

CCSDS_OMM_VERS = 2.0
CREATION_DATE  = 
ORIGINATOR     = 

OBJECT_NAME    = STARLINK-36827
OBJECT_ID      = 2026-036E
CENTER_NAME    = EARTH
REF_FRAME      = TEME
TIME_SYSTEM    = UTC
MEAN_ELEMENT_THEORY = SGP/SGP4

EPOCH          = 2026-02-28T20:00:01.999008
MEAN_MOTION    = 15.92102674
ECCENTRICITY   = .0001702
INCLINATION    = 42.9961
RA_OF_ASC_NODE = 304.1881
ARG_OF_PERICENTER = 276.2319
MEAN_ANOMALY   = 177.2962

EPHEMERIS_TYPE = 0
CLASSIFICATION_TYPE = U
NORAD_CAT_ID   = 67908
ELEMENT_SET_NO = 999
REV_AT_EPOCH   = 222
BSTAR          = -.46623E-2
MEAN_MOTION_DOT = -.1605876E-1
MEAN_MOTION_DDOT = .72002E-3

CCSDS_OMM_VERS = 2.0
CREATION_DATE  = 
ORIGINATOR     = 

OBJECT_NAME    = STARLINK-36822
OBJECT_ID      = 2026-036F
CENTER_NAME    = EARTH
REF_FRAME      = TEME
TIME_SYSTEM    = UTC
MEAN_ELEMENT_THEORY = SGP/SGP4

EPOCH          = 2026-02-28T20:00:01.999008
MEAN_MOTION    = 15.92264280
ECCENTRICITY   = .0001647
INCLINATION    = 42.9962
RA_OF_ASC_NODE = 304.1824
ARG_OF_PERICENTER = 277.2571
MEAN_ANOMALY   = 178.5838

EPHEMERIS_TYPE = 0
CLASSIFICATION_TYPE = U
NORAD_CAT_ID   = 67909
ELEMENT_SET_NO = 999
REV_AT_EPOCH   = 222
BSTAR          = -.46088E-2
MEAN_MOTION_DOT = -.1600962E-1
MEAN_MOTION_DDOT = .71709E-3

CCSDS_OMM_VERS = 2.0
CREATION_DATE  = 
ORIGINATOR     = 

OBJECT_NAME    = STARLINK-36847
OBJECT_ID      = 2026-036G
CENTER_NAME    = EARTH
REF_FRAME      = TEME
TIME_SYSTEM    = UTC
MEAN_ELEMENT_THEORY = SGP/SGP4

EPOCH          = 2026-02-28T20:00:01.999008
MEAN_MOTION    = 15.92421859
ECCENTRICITY   = .0001766
INCLINATION    = 42.9962
RA_OF_ASC_NODE = 304.1763
ARG_OF_PERICENTER = 274.6907
MEAN_ANOMALY   = 183.4948

EPHEMERIS_TYPE = 0
CLASSIFICATION_TYPE = U
NORAD_CAT_ID   = 67910
ELEMENT_SET_NO = 999
REV_AT_EPOCH   = 222
BSTAR          = -.45457E-2
MEAN_MOTION_DOT = -.1592235E-1
MEAN_MOTION_DDOT = .71101E-3

CCSDS_OMM_VERS = 2.0
CREATION_DATE  = 
ORIGINATOR     = 

OBJECT_NAME    = STARLINK-36736
OBJECT_ID      = 2026-036H
CENTER_NAME    = EARTH
REF_FRAME      = TEME
TIME_SYSTEM    = UTC
MEAN_ELEMENT_THEORY = SGP/SGP4

EPOCH          = 2026-02-28T20:00:01.999008
MEAN_MOTION    = 15.92581849
ECCENTRICITY   = .0001604
INCLINATION    = 42.9959
RA_OF_ASC_NODE = 304.1702
ARG_OF_PERICENTER = 277.8954
MEAN_ANOMALY   = 182.6355

EPHEMERIS_TYPE = 0
CLASSIFICATION_TYPE = U
NORAD_CAT_ID   = 67911
ELEMENT_SET_NO = 999
REV_AT_EPOCH   = 222
BSTAR          = -.44997E-2
MEAN_MOTION_DOT = -.1589359E-1
MEAN_MOTION_DDOT = .70975E-3

CCSDS_OMM_VERS = 2.0
CREATION_DATE  = 
ORIGINATOR     = 

OBJECT_NAME    = STARLINK-36676
OBJECT_ID      = 2026-036J
CENTER_NAME    = EARTH
REF_FRAME      = TEME
TIME_SYSTEM    = UTC
MEAN_ELEMENT_THEORY = SGP/SGP4

EPOCH          = 2026-02-28T20:00:01.999008
MEAN_MOTION    = 15.92735605
ECCENTRICITY   = .0001629
INCLINATION    = 42.9962
RA_OF_ASC_NODE = 304.1650
ARG_OF_PERICENTER = 276.0096
MEAN_ANOMALY   = 186.7014

EPHEMERIS_TYPE = 0
CLASSIFICATION_TYPE = U
NORAD_CAT_ID   = 67912
ELEMENT_SET_NO = 999
REV_AT_EPOCH   = 222
BSTAR          = -.44289E-2
MEAN_MOTION_DOT = -.1577178E-1
MEAN_MOTION_DDOT = .70083E-3

