STARLINK-36336          
1 67901U 26035Y   26059.83335647 -.00849918  26585-3 -10627-2 0  9998
2 67901  97.2784 351.4547 0000880 104.4913  15.6322 16.07702778  2386
STARLINK-36876          
1 67902U 26035Z   26059.83335647 -.00858412  26983-3 -10925-2 0  9991
2 67902  97.2787 351.4529 0000981  96.9724  18.0310 16.07420824  2335
STARLINK-36257          
1 67903U 26035AA  26059.83335647 -.00852930  26703-3 -10778-2 0  9997
2 67903  97.2784 351.4531 0000923  92.8353  24.3456 16.07534595  2382
STARLINK-36814          
1 67904U 26036A   26059.83335647 -.01663928  76390-3 -49975-2 0  9995
2 67904  42.9961 304.2114 0001723 271.6274 172.7820 15.91457498  2222
STARLINK-36729          
1 67905U 26036B   26059.83335647 -.01625798  73303-3 -48437-2 0  9992
2 67905  42.9959 304.2054 0001749 277.0665 169.5296 15.91607987  2226
STARLINK-36763          
1 67906U 26036C   26059.83335647 -.01622054  73112-3 -47901-2 0  9998
2 67906  42.9959 304.1996 0001657 279.4275 169.4831 15.91777637  2226
STARLINK-36742          
1 67907U 26036D   26059.83335647 -.01609654  72201-3 -47127-2 0  9998
2 67907  42.9960 304.1943 0001686 271.6557 179.3873 15.91941595  2222
STARLINK-36827          
1 67908U 26036E   26059.83335647 -.01605876  72002-3 -46623-2 0  9990
2 67908  42.9961 304.1881 0001702 276.2319 177.2962 15.92102674  2225
STARLINK-36822          
1 67909U 26036F   26059.83335647 -.01600962  71709-3 -46088-2 0  9990
2 67909  42.9962 304.1824 0001647 277.2571 178.5838 15.92264280  2221
STARLINK-36847          
1 67910U 26036G   26059.83335647 -.01592235  71101-3 -45457-2 0  9990
2 67910  42.9962 304.1763 0001766 274.6907 183.4948 15.92421859  2225
STARLINK-36736          
1 67911U 26036H   26059.83335647 -.01589359  70975-3 -44997-2 0  9990
2 67911  42.9959 304.1702 0001604 277.8954 182.6355 15.92581849  2222
STARLINK-36676          
1 67912U 26036J   26059.83335647 -.01577178  70083-3 -44289-2 0  9991
2 67912  42.9962 304.1650 0001629 276.0096 186.7014 15.92735605  2222
